start=new Date('2022-11-08T00:00:00.000Z').valueOf();
sats=[{"OBJECT_TYPE":"PAYLOAD","BSTAR":"0.00032470000000","REF_FRAME":"TEME","EPOCH":"2022-11-07T21:12:56.719584","DECAY_DATE":null,"MEAN_ELEMENT_THEORY":"SGP4","RCS_SIZE":"LARGE","TLE_LINE1":"1 48330U 21036BG  22311.88398981  .00004557  00000-0  32470-3 0  9993","ECCENTRICITY":"0.00014490","SEMIMAJOR_AXIS":"6925.388","TLE_LINE2":"2 48330  53.0549 168.5702 0001449  79.0038 281.1113 15.06387202 84485","MEAN_ANOMALY":"281.1113","INCLINATION":"53.0549","SITE":"AFETR","MEAN_MOTION_DDOT":"0.0000000000000","OBJECT_NAME":"STARLINK-2501","PERIOD":"95.593","NORAD_CAT_ID":"48330","CLASSIFICATION_TYPE":"U","MEAN_MOTION_DOT":"0.00004557","COUNTRY_CODE":"US","REV_AT_EPOCH":"8448","TIME_SYSTEM":"UTC","RA_OF_ASC_NODE":"168.5702","OBJECT_ID":"2021-036BG","EPHEMERIS_TYPE":"0","ARG_OF_PERICENTER":"79.0038","PERIAPSIS":"546.249","MEAN_MOTION":"15.06387202","CENTER_NAME":"EARTH","FILE":"3648233","LAUNCH_DATE":"2021-04-29","GP_ID":"217104776","ELEMENT_SET_NO":"999","APOAPSIS":"548.256"},{"ARG_OF_PERICENTER":"68.8032","FILE":"3648233","CENTER_NAME":"EARTH","MEAN_MOTION":"15.06389417","PERIAPSIS":"546.137","LAUNCH_DATE":"2021-04-29","APOAPSIS":"548.355","ELEMENT_SET_NO":"999","GP_ID":"217105026","COUNTRY_CODE":"US","RA_OF_ASC_NODE":"168.5849","TIME_SYSTEM":"UTC","REV_AT_EPOCH":"8448","OBJECT_ID":"2021-036BH","EPHEMERIS_TYPE":"0","SITE":"AFETR","MEAN_MOTION_DDOT":"0.0000000000000","OBJECT_NAME":"STARLINK-2514","MEAN_MOTION_DOT":"0.00005392","NORAD_CAT_ID":"48331","CLASSIFICATION_TYPE":"U","PERIOD":"95.593","DECAY_DATE":null,"REF_FRAME":"TEME","EPOCH":"2022-11-07T21:07:38.067744","OBJECT_TYPE":"PAYLOAD","BSTAR":"0.00038074000000","ECCENTRICITY":"0.00016020","TLE_LINE1":"1 48331U 21036BH  22311.88030171  .00005392  00000-0  38074-3 0  9992","RCS_SIZE":"LARGE","SEMIMAJOR_AXIS":"6925.381","MEAN_ELEMENT_THEORY":"SGP4","TLE_LINE2":"2 48331  53.0534 168.5849 0001602  68.8032 291.3128 15.06389417 84482","INCLINATION":"53.0534","MEAN_ANOMALY":"291.3128"},{"LAUNCH_DATE":"2021-04-29","APOAPSIS":"548.193","GP_ID":"217105278","ELEMENT_SET_NO":"999","ARG_OF_PERICENTER":"81.7157","FILE":"3648233","PERIAPSIS":"546.242","MEAN_MOTION":"15.06398708","CENTER_NAME":"EARTH","OBJECT_ID":"2021-036BJ","EPHEMERIS_TYPE":"0","COUNTRY_CODE":"US","TIME_SYSTEM":"UTC","RA_OF_ASC_NODE":"168.5695","REV_AT_EPOCH":"8448","MEAN_MOTION_DDOT":"0.0000000000000","OBJECT_NAME":"STARLINK-2511","NORAD_CAT_ID":"48332","CLASSIFICATION_TYPE":"U","MEAN_MOTION_DOT":"0.00004411","PERIOD":"95.592","SITE":"AFETR","TLE_LINE2":"2 48332  53.0543 168.5695 0001408  81.7157 278.3992 15.06398708 84485","MEAN_ANOMALY":"278.3992","INCLINATION":"53.0543","REF_FRAME":"TEME","EPOCH":"2022-11-07T21:06:15.129792","DECAY_DATE":null,"OBJECT_TYPE":"PAYLOAD","BSTAR":"0.00031487000000","RCS_SIZE":"LARGE","TLE_LINE1":"1 48332U 21036BJ  22311.87934178  .00004411  00000-0  31487-3 0  9994","SEMIMAJOR_AXIS":"6925.353","ECCENTRICITY":"0.00014080","MEAN_ELEMENT_THEORY":"SGP4"},{"INCLINATION":"53.0562","MEAN_ANOMALY":"288.3701","TLE_LINE2":"2 48333  53.0562 168.6150 0001817  71.7486 288.3701 15.06362909 84485","ECCENTRICITY":"0.00018170","TLE_LINE1":"1 48333U 21036BK  22311.87292052  .00008894  00000-0  61584-3 0  9993","RCS_SIZE":"LARGE","SEMIMAJOR_AXIS":"6925.462","MEAN_ELEMENT_THEORY":"SGP4","DECAY_DATE":null,"EPOCH":"2022-11-07T20:57:00.332928","REF_FRAME":"TEME","OBJECT_TYPE":"PAYLOAD","BSTAR":"0.00061584000000","MEAN_MOTION_DOT":"0.00008894","NORAD_CAT_ID":"48333","CLASSIFICATION_TYPE":"U","PERIOD":"95.594","MEAN_MOTION_DDOT":"0.0000000000000","OBJECT_NAME":"STARLINK-2518","SITE":"AFETR","EPHEMERIS_TYPE":"0","OBJECT_ID":"2021-036BK","RA_OF_ASC_NODE":"168.6150","TIME_SYSTEM":"UTC","REV_AT_EPOCH":"8448","COUNTRY_CODE":"US","APOAPSIS":"548.586","ELEMENT_SET_NO":"999","GP_ID":"217105529","LAUNCH_DATE":"2021-04-29","FILE":"3648233","CENTER_NAME":"EARTH","PERIAPSIS":"546.069","MEAN_MOTION":"15.06362909","ARG_OF_PERICENTER":"71.7486"},{"ARG_OF_PERICENTER":"96.7891","MEAN_MOTION":"15.06395519","PERIAPSIS":"546.369","CENTER_NAME":"EARTH","FILE":"3648233","LAUNCH_DATE":"2021-04-29","GP_ID":"217104276","ELEMENT_SET_NO":"999","APOAPSIS":"548.086","COUNTRY_CODE":"US","REV_AT_EPOCH":"8440","TIME_SYSTEM":"UTC","RA_OF_ASC_NODE":"171.0015","OBJECT_ID":"2021-036BL","EPHEMERIS_TYPE":"0","SITE":"AFETR","OBJECT_NAME":"STARLINK-2470","MEAN_MOTION_DDOT":"0.0000000000000","PERIOD":"95.592","NORAD_CAT_ID":"48334","CLASSIFICATION_TYPE":"U","MEAN_MOTION_DOT":"0.00002117","OBJECT_TYPE":"PAYLOAD","BSTAR":"0.00016098000000","REF_FRAME":"TEME","EPOCH":"2022-11-07T08:07:22.349568","DECAY_DATE":null,"MEAN_ELEMENT_THEORY":"SGP4","TLE_LINE1":"1 48334U 21036BL  22311.33845312  .00002117  00000-0  16098-3 0  9990","ECCENTRICITY":"0.00012400","RCS_SIZE":"LARGE","SEMIMAJOR_AXIS":"6925.362","TLE_LINE2":"2 48334  53.0544 171.0015 0001240  96.7891 263.3239 15.06395519 84405","MEAN_ANOMALY":"263.3239","INCLINATION":"53.0544"},{"COUNTRY_CODE":"US","REV_AT_EPOCH":"8445","TIME_SYSTEM":"UTC","RA_OF_ASC_NODE":"169.5433","OBJECT_ID":"2021-036BM","EPHEMERIS_TYPE":"0","ARG_OF_PERICENTER":"88.3360","MEAN_MOTION":"15.06392270","PERIAPSIS":"546.145","CENTER_NAME":"EARTH","FILE":"3648233","LAUNCH_DATE":"2021-04-29","GP_ID":"217104526","ELEMENT_SET_NO":"999","APOAPSIS":"548.329","OBJECT_TYPE":"PAYLOAD","BSTAR":"0.00030251000000","REF_FRAME":"TEME","EPOCH":"2022-11-07T15:59:45.027168","DECAY_DATE":null,"MEAN_ELEMENT_THEORY":"SGP4","TLE_LINE1":"1 48335U 21036BM  22311.66649337  .00004226  00000-0  30251-3 0  9996","RCS_SIZE":"LARGE","SEMIMAJOR_AXIS":"6925.372","ECCENTRICITY":"0.00015770","TLE_LINE2":"2 48335  53.0524 169.5433 0001577  88.3360 271.7809 15.06392270 84453","MEAN_ANOMALY":"271.7809","INCLINATION":"53.0524","SITE":"AFETR","MEAN_MOTION_DDOT":"0.0000000000000","OBJECT_NAME":"STARLINK-2441","PERIOD":"95.593","CLASSIFICATION_TYPE":"U","NORAD_CAT_ID":"48335","MEAN_MOTION_DOT":"0.00004226"},{"ARG_OF_PERICENTER":"87.7477","FILE":"3648233","CENTER_NAME":"EARTH","PERIAPSIS":"546.307","MEAN_MOTION":"15.06316528","LAUNCH_DATE":"2021-05-04","APOAPSIS":"548.632","ELEMENT_SET_NO":"999","GP_ID":"217105280","COUNTRY_CODE":"US","TIME_SYSTEM":"UTC","RA_OF_ASC_NODE":"69.5184","REV_AT_EPOCH":"8344","OBJECT_ID":"2021-038A","EPHEMERIS_TYPE":"0","SITE":"AFETR","MEAN_MOTION_DDOT":"0.0000000000000","OBJECT_NAME":"STARLINK-2613","MEAN_MOTION_DOT":"0.00019029","NORAD_CAT_ID":"48353","CLASSIFICATION_TYPE":"U","PERIOD":"95.597","DECAY_DATE":null,"EPOCH":"2022-11-07T16:07:45.851808","REF_FRAME":"TEME","BSTAR":"0.00129580000000","OBJECT_TYPE":"PAYLOAD","ECCENTRICITY":"0.00016790","TLE_LINE1":"1 48353U 21038A   22311.67205847  .00019029  00000-0  12958-2 0  9993","RCS_SIZE":"LARGE","SEMIMAJOR_AXIS":"6925.604","MEAN_ELEMENT_THEORY":"SGP4","TLE_LINE2":"2 48353  53.0556  69.5184 0001679  87.7477 272.3704 15.06316528 83446","INCLINATION":"53.0556","MEAN_ANOMALY":"272.3704"},{"CENTER_NAME":"EARTH","PERIAPSIS":"546.247","MEAN_MOTION":"15.06391178","FILE":"3648233","ARG_OF_PERICENTER":"101.6356","ELEMENT_SET_NO":"999","GP_ID":"217105531","APOAPSIS":"548.234","LAUNCH_DATE":"2021-05-04","REV_AT_EPOCH":"8345","TIME_SYSTEM":"UTC","RA_OF_ASC_NODE":"69.2380","COUNTRY_CODE":"US","EPHEMERIS_TYPE":"0","OBJECT_ID":"2021-038B","SITE":"AFETR","PERIOD":"95.593","MEAN_MOTION_DOT":"0.00002444","NORAD_CAT_ID":"48354","CLASSIFICATION_TYPE":"U","OBJECT_NAME":"STARLINK-2674","MEAN_MOTION_DDOT":"0.0000000000000","MEAN_ELEMENT_THEORY":"SGP4","ECCENTRICITY":"0.00014340","TLE_LINE1":"1 48354U 21038B   22311.73468372  .00002444  00000-0  18297-3 0  9991","RCS_SIZE":"LARGE","SEMIMAJOR_AXIS":"6925.376","OBJECT_TYPE":"PAYLOAD","BSTAR":"0.00018297000000","DECAY_DATE":null,"REF_FRAME":"TEME","EPOCH":"2022-11-07T17:37:56.673408","INCLINATION":"53.0546","MEAN_ANOMALY":"258.4794","TLE_LINE2":"2 48354  53.0546  69.2380 0001434 101.6356 258.4794 15.06391178 83451"},{"TLE_LINE1":"1 48355U 21038C   22311.53196898  .00001574  00000-0  12458-3 0  9997","RCS_SIZE":"LARGE","ECCENTRICITY":"0.00014320","SEMIMAJOR_AXIS":"6925.412","MEAN_ELEMENT_THEORY":"SGP4","EPOCH":"2022-11-07T12:46:02.119872","REF_FRAME":"TEME","DECAY_DATE":null,"BSTAR":"0.00012458000000","OBJECT_TYPE":"PAYLOAD","MEAN_ANOMALY":"268.0507","INCLINATION":"53.0559","TLE_LINE2":"2 48355  53.0559  70.1504 0001432  92.0646 268.0507 15.06379286 84016","SITE":"AFETR","CLASSIFICATION_TYPE":"U","NORAD_CAT_ID":"48355","MEAN_MOTION_DOT":"0.00001574","PERIOD":"95.593","OBJECT_NAME":"STARLINK-2635","MEAN_MOTION_DDOT":"0.0000000000000","TIME_SYSTEM":"UTC","RA_OF_ASC_NODE":"70.1504","REV_AT_EPOCH":"8401","COUNTRY_CODE":"US","EPHEMERIS_TYPE":"0","OBJECT_ID":"2021-038C","FILE":"3647792","MEAN_MOTION":"15.06379286","PERIAPSIS":"546.285","CENTER_NAME":"EARTH","ARG_OF_PERICENTER":"92.0646","APOAPSIS":"548.269","GP_ID":"217075132","ELEMENT_SET_NO":"999","LAUNCH_DATE":"2021-05-04"},{"MEAN_ELEMENT_THEORY":"SGP4","TLE_LINE1":"1 48356U 21038D   22311.52827481  .00003040  00000-0  22299-3 0  9990","ECCENTRICITY":"0.00013180","RCS_SIZE":"LARGE","SEMIMAJOR_AXIS":"6925.390","OBJECT_TYPE":"PAYLOAD","BSTAR":"0.00022299000000","DECAY_DATE":null,"EPOCH":"2022-11-07T12:40:42.943584","REF_FRAME":"TEME","INCLINATION":"53.0560","MEAN_ANOMALY":"256.4037","TLE_LINE2":"2 48356  53.0560  70.1456 0001318 103.7099 256.4037 15.06386361 83425","SITE":"AFETR","PERIOD":"95.593","MEAN_MOTION_DOT":"0.00003040","NORAD_CAT_ID":"48356","CLASSIFICATION_TYPE":"U","MEAN_MOTION_DDOT":"0.0000000000000","OBJECT_NAME":"STARLINK-2637","REV_AT_EPOCH":"8342","TIME_SYSTEM":"UTC","RA_OF_ASC_NODE":"70.1456","COUNTRY_CODE":"US","EPHEMERIS_TYPE":"0","OBJECT_ID":"2021-038D","CENTER_NAME":"EARTH","MEAN_MOTION":"15.06386361","PERIAPSIS":"546.343","FILE":"3648233","ARG_OF_PERICENTER":"103.7099","ELEMENT_SET_NO":"999","GP_ID":"217104528","APOAPSIS":"548.168","LAUNCH_DATE":"2021-05-04"}];
